STARLINK-31675          
1 59548U 24074Q   26068.15009721 -.00003433  00000+0 -11533-3 0  9995
2 59548  43.0020 346.4129 0000091  29.6362 330.4495 15.27570707105936
TRANSPORTER-12 OBJECT AZ
1 62656U 25009AZ  26068.71026235  .00016057  00000+0  54903-3 0  9991
2 62656  97.3981 151.9913 0000987  45.3581 314.7740 15.30349724 63792
